GORIZONT 1 [-]          
1 11158U 78118A   22328.07006903 -.00000035  00000+0  00000+0 0  9990
2 11158  11.0780 199.0552 3440369 289.9824  36.8439  1.00307044109874
GORIZONT 2 [-]          
1 11440U 79062A   22329.84644069  .00000002  00000+0  00000+0 0  9993
2 11440   8.9119 299.9850 0003858 292.2649 203.0143  1.00299895124991
GORIZONT 3 [-]          
1 11648U 79105A   22329.81273715 -.00000154  00000+0  00000+0 0  9993
2 11648   9.0738 301.4416 0013332 219.4671 277.4676  1.00346946109451
GORIZONT 4 [-]          
1 11841U 80049A   22329.88894161 -.00000011  00000+0  00000+0 0  9990
2 11841  10.2308 307.3073 0001146 301.1398 229.1910  0.98627940220701
GORIZONT 5 [-]          
1 13092U 82020A   22329.94146639 -.00000119  00000+0  00000+0 0  9997
2 13092  11.2338 312.6273 0034044 215.9836 350.3722  0.98532046108781
GORIZONT 6 [-]          
1 13624U 82103A   22330.10478124  .00000126  00000+0  00000+0 0  9994
2 13624  10.1588 312.6816 0001627 244.8826 101.9797  1.00316522107910
GORIZONT 7 [-]          
1 14160U 83066A   22329.64602947 -.00000143  00000+0  00000+0 0  9998
2 14160  11.8398 322.1123 0009748 317.2840  30.0766  0.98349278141964
GORIZONT 8 [-]          
1 14532U 83118A   22329.60079135 -.00000016  00000+0  00000+0 0  9991
2 14532  12.0186 323.9789 0029885 152.8698  34.9599  0.98269052107735
GORIZONT 9 [-]          
1 14940U 84041A   22329.80875671 -.00000035  00000+0  00000+0 0  9992
2 14940  11.2080 321.9926 0004709 217.6441 246.3504  1.00223596108910
GORIZONT 10 [-]         
1 15144U 84078A   22329.68185427  .00000103  00000+0  00000+0 0  9993
2 15144  11.3065 323.0200 0000472 186.9842 352.3091  1.00247209141547
GORIZONT 11 [-]         
1 15484U 85007A   22329.75432503 -.00000361  00000+0  00000+0 0  9998
2 15484  11.4919 325.0084 0003170 162.7242 327.4216  1.00352963139609
GORIZONT 12 [-]         
1 16769U 86044A   22329.65300267  .00000117  00000+0  00000+0 0  9995
2 16769  12.1262 330.4030 0001868 239.6343 137.4112  1.00226260134232
GORIZONT 13 [-]         
1 17083U 86090A   22329.61227007 -.00000064  00000+0  00000+0 0  9994
2 17083  14.0202 337.6121 0013354 339.0632 209.4463  0.96725617106070
GORIZONT 14 [-]         
1 17969U 87040A   22329.48276951 -.00000053  00000+0  00000+0 0  9998
2 17969  12.9398 328.9793 0031397 177.6116   5.0524  0.97658068107169
GORIZONT 15 [-]         
1 19017U 88028A   22329.82925071 -.00000061  00000+0  00000+0 0  9992
2 19017  14.3191 340.4146 0037204 159.4902 321.6600  0.97826684106798
GORIZONT 16 [-]         
1 19397U 88071A   22329.34484375  .00000020  00000+0  00000+0 0  9999
2 19397  13.1691 339.0996 0013235  64.6674 329.1301  0.99986549125240
GORIZONT 17 [-]         
1 19765U 89004A   22329.79700609 -.00000205  00000+0  00000+0 0  9991
2 19765  13.7249 342.4553 0022892 136.4841 349.6530  0.99066238122707
GORIZONT 18 [-]         
1 20107U 89052A   22329.62216410  .00000024  00000+0  00000+0 0  9998
2 20107  13.7731 343.7129 0033739 319.6864 235.6449  0.99397648121490
GORIZONT 19 [-]         
1 20263U 89081A   22329.81398247 -.00000148  00000+0  00000+0 0  9991
2 20263  13.5014 342.8889 0004183 212.1402 240.8742  1.00355652 34314
GORIZONT 20 [-]         
1 20659U 90054A   22329.82319263 -.00000245  00000+0  00000+0 0  9992
2 20659  13.9462 345.7064 0006910 171.1575 295.7981  1.00239964118668
GORIZONT 21 [-]         
1 20923U 90094A   22330.37274958 -.00000298  00000+0  00000+0 0  9991
2 20923  13.9619 346.4711 0005187 206.0134 309.6643  1.00355764117416
GORIZONT 22 [-]         
1 20953U 90102A   22329.59874860 -.00000306  00000+0  00000+0 0  9994
2 20953  13.9223 346.8468 0002277  25.0894  45.8625  1.00246615117347
GORIZONT 23 [-]         
1 21533U 91046A   22329.62100980  .00000033  00000+0  00000+0 0  9992
2 21533  14.6976 351.0104 0003643 303.7547 241.1352  0.98906606 33837
GORIZONT 24 [-]         
1 21759U 91074A   22329.33754159 -.00000196  00000+0  00000+0 0  9995
2 21759  14.8592 352.9258 0018269 226.5756 144.8315  0.98445370112165
GORIZONT 25 [-]         
1 21922U 92017A   22330.12740306  .00000051  00000+0  00000+0 0  9992
2 21922  14.3993 352.2358 0028443  85.1777 270.1184  0.99844845111963
GORIZONT 26 [-]         
1 22041U 92043A   22329.63225340 -.00000002  00000+0  00000+0 0  9991
2 22041  14.5772 354.2546 0031527 236.8291 319.0863  0.99240521110571
GORIZONT 27 [-]         
1 22245U 92082A   22329.22049019  .00000132  00000+0  00000+0 0  9995
2 22245  14.4940 353.8348 0011288  10.9154 176.0142  1.00163766114099
GORIZONT 28 [-]         
1 22880U 93069A   22329.21787524  .00000030  00000+0  00000+0 0  9992
2 22880  14.6477 357.7067 0034357 135.7900  32.3043  0.99654519106171
GORIZONT 29 [-]         
1 22907U 93072A   22329.42114389 -.00000265  00000+0  00000+0 0  9993
2 22907  14.5576 357.1564 0009262 344.7319 198.3743  1.00153765106157
GORIZONT 30 [-]         
1 23108U 94030A   22329.54864911 -.00000268  00000+0  00000+0 0  9991
2 23108  14.5732 358.0566 0002133 186.6336 220.6885  1.00256424104430
GORIZONT 31 [-]         
1 23775U 96005A   22329.75403294 -.00000355  00000+0  00000+0 0  9998
2 23775  14.5082   4.2891 0018985 202.8480 251.1241  0.99892984 98073
GORIZONT 32 [-]         
1 23880U 96034A   22330.34551543  .00000052  00000+0  00000+0 0  9998
2 23880  14.4595   4.7969 0007904 357.3142  13.1939  1.00202481 97034
GORIZONT 33 [-]         
1 26372U 00029A   22329.92619193 -.00000174  00000+0  00000+0 0  9990
2 26372  13.2138  16.0402 0002790 110.8647 249.8854  1.00298302 82384
